IRIDIUM 116             
1 43072U 17083C   23325.34003361  .00000288  00000+0  95624-4 0  9997
2 43072  86.3977 354.3985 0002201  89.6236 270.5212 14.34220978309601
IRIDIUM 130             
1 43073U 17083D   23325.51762379  .00000327  00000+0  10962-3 0  9993
2 43073  86.3986 354.5084 0002228  95.3869 264.7581 14.34221314309574
IRIDIUM 151             
1 43074U 17083E   23326.60855619  .00000407  00000+0  13844-3 0  9996
2 43074  86.3978 353.9046 0001998  88.4974 271.6451 14.34219053309750
IRIDIUM 134             
1 43075U 17083F   23326.57684389  .00000420  00000+0  14300-3 0  9990
2 43075  86.3980 353.9132 0002359  93.9055 266.2410 14.34216296309710
IRIDIUM 137             
1 43076U 17083G   23325.12438670  .00000263  00000+0  86886-4 0  9995
2 43076  86.3982 354.5946 0002295  84.0880 276.0577 14.34220850309577
IRIDIUM 141             
1 43077U 17083H   23325.46688613  .00000289  00000+0  95990-4 0  9991
2 43077  86.3977 354.3350 0002006  93.7370 266.4055 14.34221017309626
IRIDIUM 153             
1 43078U 17083J   23327.02374494  .00000328  00000+0  11017-3 0  9996
2 43078  86.3942 322.1388 0001926  97.5660 262.5755 14.34219882310956
IRIDIUM 131             
1 43079U 17083K   23326.57051067  .00000413  00000+0  14030-3 0  9997
2 43079  86.3982 353.9970 0002091  94.5277 265.6158 14.34220068309716
